STARLINK-3297           
1 50159U 21125D   26075.71685370 -.00000110  00000+0  11144-4 0  9995
2 50159  53.2161 227.5852 0001187  84.2546 275.8581 15.08835147237513
STARLINK-3304           
1 50161U 21125F   26075.85942525  .00000601  00000+0  55811-4 0  9994
2 50161  53.2136 226.9337 0000711  87.0258 273.0816 15.08840154237539
STARLINK-3293           
1 50176U 21125W   26075.11329208  .00005435  00000+0  35964-3 0  9992
2 50176  53.2184 220.2845 0001539  96.5980 263.5188 15.08804581237614
STARLINK-3323           
1 50804U 22001B   26075.84285969  .00000448  00000+0  46265-4 0  9995
2 50804  53.2162 127.0105 0001236  88.1473 271.9661 15.08837046231625
STARLINK-3338           
1 50812U 22001K   26075.85759532 -.00000105  00000+0  11516-4 0  9999
2 50812  53.2165 127.0480 0001285  89.6538 270.4601 15.08837934231629
STARLINK-3234           
1 50815U 22001N   26075.87137678 -.00000371  00000+0 -52234-5 0  9994
2 50815  53.2161 136.8818 0001261  85.1462 274.9674 15.08835508231491
STARLINK-3342           
1 50816U 22001P   26075.54368961  .00020136  00000+0  11120-2 0  9995
2 50816  53.2127 136.5976 0000400 132.9060 227.1968 15.13925741231463
STARLINK-3346           
1 50821U 22001U   26075.54752530  .00000154  00000+0  27767-4 0  9994
2 50821  53.2180 138.2199 0001281  90.3407 269.7732 15.08836681231441
STARLINK-3299           
1 50831U 22001AE  26075.55123292 -.00000139  00000+0  93234-5 0  9990
2 50831  53.2169 138.3851 0001068  88.1291 271.9823 15.08835230231449
STARLINK-3318           
1 50837U 22001AL  26075.55490028 -.00004887  00000+0 -28911-3 0  9993
2 50837  53.2169 138.3004 0001580  75.0380 285.0787 15.08844031231442
STARLINK-3401           
1 51465U 22010K   26075.18046471 -.00000494  00000+0 -12948-4 0  9993
2 51465  53.2177 249.9839 0001470  91.1210 268.9950 15.08829758228305
STARLINK-4024           
1 52599U 22052B   26075.76927148 -.00000713  00000+0 -26741-4 0  9991
2 52599  53.2164 247.4439 0001250  89.7803 270.3333 15.08837805212729
STARLINK-3984           
1 52621U 22052Z   26075.82169747  .00000327  00000+0  38642-4 0  9999
2 52621  53.2165 237.1032 0001279  88.3399 271.7739 15.08833811212062
