
    {
      "objectName": "STARLINK-3297",
      "objectId": "2021-125D",
      "noradId": 50159,
      "epochUtc": "2026-03-16T17:12:16.159680Z",
      "meanMotionRevPerDay": 15.08835147,
      "eccentricity": 0.0001187,
      "inclinationDeg": 53.2161,
      "raanDeg": 227.5852,
      "argPerigeeDeg": 84.2546,
      "meanAnomalyDeg": 275.8581,
      "bstar": 0.000011144,
      "meanMotionDot": -0.0000011,
      "meanMotionDdot": 0,
      "elementSetNo": 999,
      "revAtEpoch": 23751
    },
    {
      "objectName": "STARLINK-3304",
      "objectId": "2021-125F",
      "noradId": 50161,
      "epochUtc": "2026-03-16T20:37:34.341600Z",
      "meanMotionRevPerDay": 15.08840154,
      "eccentricity": 0.0000711,
      "inclinationDeg": 53.2136,
      "raanDeg": 226.9337,
      "argPerigeeDeg": 87.0258,
      "meanAnomalyDeg": 273.0816,
      "bstar": 0.000055811,
      "meanMotionDot": 0.00000601,
      "meanMotionDdot": 0,
      "elementSetNo": 999,
      "revAtEpoch": 23753
    },
    {
      "objectName": "STARLINK-3293",
      "objectId": "2021-125W",
      "noradId": 50176,
      "epochUtc": "2026-03-16T02:43:08.435712Z",
      "meanMotionRevPerDay": 15.08804581,
      "eccentricity": 0.00015391,
      "inclinationDeg": 53.2184,
      "raanDeg": 220.2845,
      "argPerigeeDeg": 96.598,
      "meanAnomalyDeg": 263.5188,
      "bstar": 0.00035964093,
      "meanMotionDot": 0.00005435,
      "meanMotionDdot": 0,
      "elementSetNo": 999,
      "revAtEpoch": 23761
    },
    {
      "objectName": "STARLINK-3323",
      "objectId": "2022-001B",
      "noradId": 50804,
      "epochUtc": "2026-03-16T20:13:43.077216Z",
      "meanMotionRevPerDay": 15.08837046,
      "eccentricity": 0.0001236,
      "inclinationDeg": 53.2162,
      "raanDeg": 127.0105,
      "argPerigeeDeg": 88.1473,
      "meanAnomalyDeg": 271.9661,
      "bstar": 0.000046265,
      "meanMotionDot": 0.00000448,
      "meanMotionDdot": 0,
      "elementSetNo": 999,
      "revAtEpoch": 23162
    },
    {
      "objectName": "STARLINK-3338",
      "objectId": "2022-001K",
      "noradId": 50812,
      "epochUtc": "2026-03-16T20:34:56.235648Z",
      "meanMotionRevPerDay": 15.08837934,
      "eccentricity": 0.0001285,
      "inclinationDeg": 53.2165,
      "raanDeg": 127.048,
      "argPerigeeDeg": 89.6538,
      "meanAnomalyDeg": 270.4601,
      "bstar": 0.000011516,
      "meanMotionDot": -0.00000105,
      "meanMotionDdot": 0,
      "elementSetNo": 999,
      "revAtEpoch": 23162
    },
    {
      "objectName": "STARLINK-3234",
      "objectId": "2022-001N",
      "noradId": 50815,
      "epochUtc": "2026-03-16T20:54:46.953792Z",
      "meanMotionRevPerDay": 15.08835508,
      "eccentricity": 0.0001261,
      "inclinationDeg": 53.2161,
      "raanDeg": 136.8818,
      "argPerigeeDeg": 85.1462,
      "meanAnomalyDeg": 274.9674,
      "bstar": -0.0000052234,
      "meanMotionDot": -0.00000371,
      "meanMotionDdot": 0,
      "elementSetNo": 999,
      "revAtEpoch": 23149
    },
    {
      "objectName": "STARLINK-3342",
      "objectId": "2022-001P",
      "noradId": 50816,
      "epochUtc": "2026-03-16T13:02:54.782304Z",
      "meanMotionRevPerDay": 15.13925741,
      "eccentricity": 0.00004,
      "inclinationDeg": 53.2127,
      "raanDeg": 136.5976,
      "argPerigeeDeg": 132.906,
      "meanAnomalyDeg": 227.1968,
      "bstar": 0.001112,
      "meanMotionDot": 0.00020136,
      "meanMotionDdot": 0,
      "elementSetNo": 999,
      "revAtEpoch": 23146
    },
    {
      "objectName": "STARLINK-3346",
      "objectId": "2022-001U",
      "noradId": 50821,
      "epochUtc": "2026-03-16T13:08:26.185920Z",
      "meanMotionRevPerDay": 15.08836681,
      "eccentricity": 0.0001281,
      "inclinationDeg": 53.218,
      "raanDeg": 138.2199,
      "argPerigeeDeg": 90.3407,
      "meanAnomalyDeg": 269.7732,
      "bstar": 0.000027767,
      "meanMotionDot": 0.00000154,
      "meanMotionDdot": 0,
      "elementSetNo": 999,
      "revAtEpoch": 23144
    },
    {
      "objectName": "STARLINK-3299",
      "objectId": "2022-001AE",
      "noradId": 50831,
      "epochUtc": "2026-03-16T13:13:46.524288Z",
      "meanMotionRevPerDay": 15.0883523,
      "eccentricity": 0.0001068,
      "inclinationDeg": 53.2169,
      "raanDeg": 138.3851,
      "argPerigeeDeg": 88.1291,
      "meanAnomalyDeg": 271.9823,
      "bstar": 0.0000093234,
      "meanMotionDot": -0.00000139,
      "meanMotionDdot": 0,
      "elementSetNo": 999,
      "revAtEpoch": 23144
    },
    {
      "objectName": "STARLINK-3318",
      "objectId": "2022-001AL",
      "noradId": 50837,
      "epochUtc": "2026-03-16T13:19:03.384192Z",
      "meanMotionRevPerDay": 15.08844031,
      "eccentricity": 0.000158,
      "inclinationDeg": 53.2169,
      "raanDeg": 138.3004,
      "argPerigeeDeg": 75.038,
      "meanAnomalyDeg": 285.0787,
      "bstar": -0.00028911,
      "meanMotionDot": -0.00004887,
      "meanMotionDdot": 0,
      "elementSetNo": 999,
      "revAtEpoch": 23144
    },
    {
      "objectName": "STARLINK-3401",
      "objectId": "2022-010K",
      "noradId": 51465,
      "epochUtc": "2026-03-16T04:19:52.150944Z",
      "meanMotionRevPerDay": 15.08829758,
      "eccentricity": 0.00014703,
      "inclinationDeg": 53.2177,
      "raanDeg": 249.9839,
      "argPerigeeDeg": 91.121,
      "meanAnomalyDeg": 268.995,
      "bstar": -0.000012948359,
      "meanMotionDot": -0.00000494,
      "meanMotionDdot": 0,
      "elementSetNo": 999,
      "revAtEpoch": 22830
    },
    {
      "objectName": "STARLINK-4024",
      "objectId": "2022-052B",
      "noradId": 52599,
      "epochUtc": "2026-03-16T18:27:45.055872Z",
      "meanMotionRevPerDay": 15.08837805,
      "eccentricity": 0.000125,
      "inclinationDeg": 53.2164,
      "raanDeg": 247.4439,
      "argPerigeeDeg": 89.7803,
      "meanAnomalyDeg": 270.3333,
      "bstar": -0.000026741,
      "meanMotionDot": -0.00000713,
      "meanMotionDdot": 0,
      "elementSetNo": 999,
      "revAtEpoch": 21272
    },
    {
      "objectName": "STARLINK-3984",
      "objectId": "2022-052Z",
      "noradId": 52621,
      "epochUtc": "2026-03-16T19:43:14.661408Z",
      "meanMotionRevPerDay": 15.08833811,
      "eccentricity": 0.0001279,
      "inclinationDeg": 53.2165,
      "raanDeg": 237.1032,
      "argPerigeeDeg": 88.3399,
      "meanAnomalyDeg": 271.7739,
      "bstar": 0.000038642,
      "meanMotionDot": 0.00000327,
      "meanMotionDdot": 0,
      "elementSetNo": 999,
      "revAtEpoch": 21206
    }